STARLINK-2326           
1 47870U 21021L   26068.87982480 -.00005513  00000+0 -17423-3 0  9995
2 47870  53.1577 280.0985 0000936  92.4868 267.6240 15.30185263275996
BANDWAGON-2 OBJECT D    
1 62380U 24247D   26068.52261193  .00011259  00000+0  40119-3 0  9994
2 62380  44.9954 115.6710 0003488 351.1453   8.9368 15.29076102 67732
